start=new Date('2021-08-22T00:00:00.000Z').valueOf();
sats=[{"REV_AT_EPOCH":"2487","ELEMENT_SET_NO":"999","LAUNCH_DATE":"2021-03-24","COUNTRY_CODE":"US","ARG_OF_PERICENTER":"18.8544","RCS_SIZE":"LARGE","OBJECT_ID":"2021-024J","MEAN_MOTION_DDOT":"0.0000000000000","EPHEMERIS_TYPE":"0","CLASSIFICATION_TYPE":"U","MEAN_MOTION_DOT":"-0.00004723","SEMIMAJOR_AXIS":"6727.864","APOAPSIS":"352.656","GP_ID":"183185836","TLE_LINE2":"2 47985  53.0463 179.0343 0004351  18.8544 341.2634 15.73211019 24870","FILE":"3100831","DECAY_DATE":null,"REF_FRAME":"TEME","PERIAPSIS":"346.801","PERIOD":"91.533","RA_OF_ASC_NODE":"179.0343","MEAN_ELEMENT_THEORY":"SGP4","CENTER_NAME":"EARTH","TLE_LINE1":"1 47985U 21024J   21233.35303710 -.00004723  00000-0 -29171-4 0  9997","OBJECT_NAME":"STARLINK-2308","MEAN_MOTION":"15.73211019","EPOCH":"2021-08-21T08:28:22.405440","NORAD_CAT_ID":"47985","OBJECT_TYPE":"PAYLOAD","ECCENTRICITY":"0.00043510","INCLINATION":"53.0463","TIME_SYSTEM":"UTC","BSTAR":"-0.00002917100000","SITE":"AFETR","MEAN_ANOMALY":"341.2634"},{"ARG_OF_PERICENTER":"21.7817","LAUNCH_DATE":"2021-03-24","COUNTRY_CODE":"US","ELEMENT_SET_NO":"999","REV_AT_EPOCH":"2498","TLE_LINE2":"2 47986  53.0328 172.7369 0002138  21.7817 338.3291 15.72271434 24980","GP_ID":"183215202","APOAPSIS":"353.848","MEAN_MOTION_DOT":"-0.00004914","SEMIMAJOR_AXIS":"6730.544","EPHEMERIS_TYPE":"0","CLASSIFICATION_TYPE":"U","OBJECT_ID":"2021-024K","MEAN_MOTION_DDOT":"0.0000000000000","RCS_SIZE":"LARGE","EPOCH":"2021-08-21T13:18:12.873024","TLE_LINE1":"1 47986U 21024K   21233.55431566 -.00004914  00000-0 -31894-4 0  9998","MEAN_MOTION":"15.72271434","OBJECT_NAME":"STARLINK-2313","CENTER_NAME":"EARTH","RA_OF_ASC_NODE":"172.7369","MEAN_ELEMENT_THEORY":"SGP4","PERIAPSIS":"350.970","PERIOD":"91.587","REF_FRAME":"TEME","FILE":"3101032","DECAY_DATE":null,"BSTAR":"-0.00003189400000","SITE":"AFETR","MEAN_ANOMALY":"338.3291","INCLINATION":"53.0328","TIME_SYSTEM":"UTC","ECCENTRICITY":"0.00021380","OBJECT_TYPE":"PAYLOAD","NORAD_CAT_ID":"47986"},{"RCS_SIZE":"LARGE","MEAN_MOTION_DDOT":"0.0000000000000","OBJECT_ID":"2021-024L","CLASSIFICATION_TYPE":"U","EPHEMERIS_TYPE":"0","SEMIMAJOR_AXIS":"6727.803","MEAN_MOTION_DOT":"0.00005954","APOAPSIS":"352.737","GP_ID":"183186838","TLE_LINE2":"2 47987  53.0463 179.6604 0004561   9.0598 351.0502 15.73232260 24865","REV_AT_EPOCH":"2486","ELEMENT_SET_NO":"999","COUNTRY_CODE":"US","LAUNCH_DATE":"2021-03-24","ARG_OF_PERICENTER":"9.0598","NORAD_CAT_ID":"47987","OBJECT_TYPE":"PAYLOAD","ECCENTRICITY":"0.00045610","TIME_SYSTEM":"UTC","INCLINATION":"53.0463","MEAN_ANOMALY":"351.0502","SITE":"AFETR","BSTAR":"0.00004675400000","FILE":"3100831","DECAY_DATE":null,"REF_FRAME":"TEME","PERIOD":"91.531","PERIAPSIS":"346.600","MEAN_ELEMENT_THEORY":"SGP4","RA_OF_ASC_NODE":"179.6604","CENTER_NAME":"EARTH","MEAN_MOTION":"15.73232260","TLE_LINE1":"1 47987U 21024L   21233.22575615  .00005954  00000-0  46754-4 0  9991","EPOCH":"2021-08-21T05:25:05.331360","OBJECT_NAME":"STARLINK-2311"},{"TIME_SYSTEM":"UTC","INCLINATION":"53.0561","MEAN_ANOMALY":"300.2328","SITE":"AFETR","BSTAR":"0.00017033000000","NORAD_CAT_ID":"47988","ECCENTRICITY":"0.00014310","OBJECT_TYPE":"PAYLOAD","CENTER_NAME":"EARTH","TLE_LINE1":"1 47988U 21024M   21233.66360589  .00002257  00000-0  17033-3 0  9992","MEAN_MOTION":"15.06409644","EPOCH":"2021-08-21T15:55:35.548896","OBJECT_NAME":"STARLINK-2306","REF_FRAME":"TEME","DECAY_DATE":null,"FILE":"3101032","MEAN_ELEMENT_THEORY":"SGP4","RA_OF_ASC_NODE":"208.2373","PERIOD":"95.592","PERIAPSIS":"546.193","APOAPSIS":"548.175","SEMIMAJOR_AXIS":"6925.319","MEAN_MOTION_DOT":"0.00002257","TLE_LINE2":"2 47988  53.0561 208.2373 0001431  59.8803 300.2328 15.06409644 24491","GP_ID":"183213714","MEAN_MOTION_DDOT":"0.0000000000000","OBJECT_ID":"2021-024M","RCS_SIZE":"LARGE","CLASSIFICATION_TYPE":"U","EPHEMERIS_TYPE":"0","ELEMENT_SET_NO":"999","ARG_OF_PERICENTER":"59.8803","COUNTRY_CODE":"US","LAUNCH_DATE":"2021-03-24","REV_AT_EPOCH":"2449"},{"MEAN_ANOMALY":"346.5662","SITE":"AFETR","BSTAR":"0.00007447600000","TIME_SYSTEM":"UTC","INCLINATION":"53.0459","ECCENTRICITY":"0.00042460","OBJECT_TYPE":"PAYLOAD","NORAD_CAT_ID":"47989","MEAN_MOTION":"15.73232154","TLE_LINE1":"1 47989U 21024N   21234.11490755  .00009860  00000-0  74476-4 0  9995","OBJECT_NAME":"STARLINK-2305","EPOCH":"2021-08-22T02:45:28.012320","CENTER_NAME":"EARTH","MEAN_ELEMENT_THEORY":"SGP4","RA_OF_ASC_NODE":"175.2374","PERIOD":"91.531","PERIAPSIS":"346.812","REF_FRAME":"TEME","DECAY_DATE":null,"FILE":"3101157","TLE_LINE2":"2 47989  53.0459 175.2374 0004246  13.5469 346.5662 15.73232154 24526","GP_ID":"183218735","APOAPSIS":"352.525","SEMIMAJOR_AXIS":"6727.804","MEAN_MOTION_DOT":"0.00009860","CLASSIFICATION_TYPE":"U","EPHEMERIS_TYPE":"0","MEAN_MOTION_DDOT":"0.0000000000000","OBJECT_ID":"2021-024N","RCS_SIZE":"LARGE","ARG_OF_PERICENTER":"13.5469","COUNTRY_CODE":"US","LAUNCH_DATE":"2021-03-24","ELEMENT_SET_NO":"999","REV_AT_EPOCH":"2452"},{"MEAN_MOTION_DOT":"0.00001859","SEMIMAJOR_AXIS":"6727.901","APOAPSIS":"352.725","GP_ID":"183217971","TLE_LINE2":"2 47990  53.0466 175.2419 0004398  12.4427 347.6698 15.73197832 24520","RCS_SIZE":"LARGE","OBJECT_ID":"2021-024P","MEAN_MOTION_DDOT":"0.0000000000000","EPHEMERIS_TYPE":"0","CLASSIFICATION_TYPE":"U","ELEMENT_SET_NO":"999","LAUNCH_DATE":"2021-03-24","COUNTRY_CODE":"US","ARG_OF_PERICENTER":"12.4427","REV_AT_EPOCH":"2452","INCLINATION":"53.0466","TIME_SYSTEM":"UTC","BSTAR":"0.00001769100000","MEAN_ANOMALY":"347.6698","SITE":"AFETR","NORAD_CAT_ID":"47990","OBJECT_TYPE":"PAYLOAD","ECCENTRICITY":"0.00043980","CENTER_NAME":"EARTH","EPOCH":"2021-08-22T02:45:18.758880","TLE_LINE1":"1 47990U 21024P   21234.11480045  .00001859  00000-0  17691-4 0  9994","MEAN_MOTION":"15.73197832","OBJECT_NAME":"STARLINK-2307","DECAY_DATE":null,"FILE":"3101102","REF_FRAME":"TEME","PERIAPSIS":"346.807","PERIOD":"91.533","RA_OF_ASC_NODE":"175.2419","MEAN_ELEMENT_THEORY":"SGP4"},{"EPOCH":"2021-08-22T02:45:08.402112","TLE_LINE1":"1 47991U 21024Q   21234.11468058  .00033601  00000-0  24249-3 0  9991","MEAN_MOTION":"15.73225576","OBJECT_NAME":"STARLINK-2279","CENTER_NAME":"EARTH","MEAN_ELEMENT_THEORY":"SGP4","RA_OF_ASC_NODE":"175.2409","PERIOD":"91.532","PERIAPSIS":"346.947","REF_FRAME":"TEME","FILE":"3101157","DECAY_DATE":null,"MEAN_ANOMALY":"356.4776","SITE":"AFETR","BSTAR":"0.00024249000000","TIME_SYSTEM":"UTC","INCLINATION":"53.0467","ECCENTRICITY":"0.00040730","OBJECT_TYPE":"PAYLOAD","NORAD_CAT_ID":"47991","ARG_OF_PERICENTER":"3.6270","COUNTRY_CODE":"US","LAUNCH_DATE":"2021-03-24","ELEMENT_SET_NO":"999","REV_AT_EPOCH":"2452","TLE_LINE2":"2 47991  53.0467 175.2409 0004073   3.6270 356.4776 15.73225576 24521","GP_ID":"183219228","APOAPSIS":"352.427","SEMIMAJOR_AXIS":"6727.822","MEAN_MOTION_DOT":"0.00033601","CLASSIFICATION_TYPE":"U","EPHEMERIS_TYPE":"0","MEAN_MOTION_DDOT":"0.0000000000000","OBJECT_ID":"2021-024Q","RCS_SIZE":"LARGE"},{"REV_AT_EPOCH":"2486","ELEMENT_SET_NO":"999","LAUNCH_DATE":"2021-03-24","COUNTRY_CODE":"US","ARG_OF_PERICENTER":"18.6283","RCS_SIZE":"LARGE","OBJECT_ID":"2021-024R","MEAN_MOTION_DDOT":"0.0000000000000","EPHEMERIS_TYPE":"0","CLASSIFICATION_TYPE":"U","MEAN_MOTION_DOT":"0.00001072","SEMIMAJOR_AXIS":"6727.829","APOAPSIS":"352.692","GP_ID":"183186086","TLE_LINE2":"2 47992  53.0468 179.6595 0004457  18.6283 341.4897 15.73223286 24864","FILE":"3100831","DECAY_DATE":null,"REF_FRAME":"TEME","PERIAPSIS":"346.695","PERIOD":"91.532","RA_OF_ASC_NODE":"179.6595","MEAN_ELEMENT_THEORY":"SGP4","CENTER_NAME":"EARTH","TLE_LINE1":"1 47992U 21024R   21233.22519454  .00001072  00000-0  12079-4 0  9996","MEAN_MOTION":"15.73223286","OBJECT_NAME":"STARLINK-2229","EPOCH":"2021-08-21T05:24:16.808256","NORAD_CAT_ID":"47992","OBJECT_TYPE":"PAYLOAD","ECCENTRICITY":"0.00044570","INCLINATION":"53.0468","TIME_SYSTEM":"UTC","BSTAR":"0.00001207900000","SITE":"AFETR","MEAN_ANOMALY":"341.4897"},{"DECAY_DATE":null,"FILE":"3101157","REF_FRAME":"TEME","PERIAPSIS":"545.948","PERIOD":"95.593","RA_OF_ASC_NODE":"192.0363","MEAN_ELEMENT_THEORY":"SGP4","CENTER_NAME":"EARTH","TLE_LINE1":"1 47993U 21024S   21233.93221200 -.00001056  00000-0 -52030-4 0  9999","MEAN_MOTION":"15.06389653","EPOCH":"2021-08-21T22:22:23.116800","OBJECT_NAME":"STARLINK-2273","NORAD_CAT_ID":"47993","OBJECT_TYPE":"PAYLOAD","ECCENTRICITY":"0.00018730","INCLINATION":"53.0553","TIME_SYSTEM":"UTC","BSTAR":"-0.00005203000000","SITE":"AFETR","MEAN_ANOMALY":"290.7765","REV_AT_EPOCH":"2428","ELEMENT_SET_NO":"999","LAUNCH_DATE":"2021-03-24","COUNTRY_CODE":"US","ARG_OF_PERICENTER":"69.3425","RCS_SIZE":"LARGE","OBJECT_ID":"2021-024S","MEAN_MOTION_DDOT":"0.0000000000000","EPHEMERIS_TYPE":"0","CLASSIFICATION_TYPE":"U","MEAN_MOTION_DOT":"-0.00001056","SEMIMAJOR_AXIS":"6925.380","APOAPSIS":"548.542","GP_ID":"183218731","TLE_LINE2":"2 47993  53.0553 192.0363 0001873  69.3425 290.7765 15.06389653 24285"},{"ELEMENT_SET_NO":"999","ARG_OF_PERICENTER":"47.6268","COUNTRY_CODE":"US","LAUNCH_DATE":"2021-03-24","REV_AT_EPOCH":"2410","APOAPSIS":"555.648","SEMIMAJOR_AXIS":"6932.858","MEAN_MOTION_DOT":"-0.00001075","TLE_LINE2":"2 47994  53.0544 205.8116 0001333  47.6268 312.4832 15.03953012 24101","GP_ID":"183218733","MEAN_MOTION_DDOT":"0.0000000000000","OBJECT_ID":"2021-024T","RCS_SIZE":"LARGE","CLASSIFICATION_TYPE":"U","EPHEMERIS_TYPE":"0","CENTER_NAME":"EARTH","TLE_LINE1":"1 47994U 21024T   21234.08269575 -.00001075  00000-0 -57379-4 0  9996","MEAN_MOTION":"15.03953012","OBJECT_NAME":"STARLINK-2290","EPOCH":"2021-08-22T01:59:04.912800","REF_FRAME":"TEME","FILE":"3101157","DECAY_DATE":null,"MEAN_ELEMENT_THEORY":"SGP4","RA_OF_ASC_NODE":"205.8116","PERIOD":"95.748","PERIAPSIS":"553.799","TIME_SYSTEM":"UTC","INCLINATION":"53.0544","SITE":"AFETR","MEAN_ANOMALY":"312.4832","BSTAR":"-0.00005737900000","NORAD_CAT_ID":"47994","ECCENTRICITY":"0.00013330","OBJECT_TYPE":"PAYLOAD"}];
